[{"OBJECT_NAME":"YAOGAN-43 01H","OBJECT_ID":"2024-148H","EPOCH":"2026-03-10T00:13:57.702432","MEAN_MOTION":15.25826805,"ECCENTRICITY":0.000635,"INCLINATION":34.994,"RA_OF_ASC_NODE":64.6147,"ARG_OF_PERICENTER":359.2394,"MEAN_ANOMALY":0.8311,"EPHEMERIS_TYPE":0,"CLASSIFICATION_TYPE":"U","NORAD_CAT_ID":60465,"ELEMENT_SET_NO":999,"REV_AT_EPOCH":8702,"BSTAR":0.00039232254,"MEAN_MOTION_DOT":0.00010268,"MEAN_MOTION_DDOT":0},{"OBJECT_NAME":"STARLINK-32361","OBJECT_ID":"2024-207X","EPOCH":"2026-03-09T22:07:41.465280","MEAN_MOTION":15.27598509,"ECCENTRICITY":0.00020521,"INCLINATION":42.9969,"RA_OF_ASC_NODE":280.7526,"ARG_OF_PERICENTER":252.9929,"MEAN_ANOMALY":107.0698,"EPHEMERIS_TYPE":0,"CLASSIFICATION_TYPE":"U","NORAD_CAT_ID":61933,"ELEMENT_SET_NO":999,"REV_AT_EPOCH":7475,"BSTAR":0.0012588947,"MEAN_MOTION_DOT":0.00034563,"MEAN_MOTION_DDOT":0}]
